OBJECTID,StopAbbr,StopName,FacingDir,Lighting,ADA_ACCESS,BASE,Route_List,Municipality,County,Ons_Dec19,OFFs_Dec19,Position,LIFT,CURB,CURB_CUT,SIDEWALK,Stop_Type,Latitude,Longitude,Census_2010_Tracts_GA_GEOID10,Census_2010_Tracts_GA_NAMELSAD10,Census_2010_Tracts_GA_INTPTLAT10,Census_2010_Tracts_GA_INTPTLON10,NoCarPercentage19,MedHHI19,TotPop19,PerCapitaInc19,Missing Amenities,Shelter
4,212195,CONLEY RD SE @ 925,E,1,N,DIRT,55,Atlanta,Fulton,3.115637,1.140413,AT,Y,Y,N,N,Sign,33.650083,-84.359553,13121007200,Census Tract 72,33.6563757,-84.3609353,16.2,27083,2136,14787.7, ADA_Access Sidewalk,0
8,212196,FORREST PARK RD SE @ CONLEY RD SE,NE,1,N,DIRT,55,Atlanta,Fulton,16.880733,3.145009,FS,N,Y,N,N,Sign,33.65071,-84.357892,13121007200,Census Tract 72,33.6563757,-84.3609353,16.2,27083,2136,14787.7, ADA_Access Sidewalk,0
20,212198,FORREST PARK RD SE @ OAKSHIRE WAY SE,NE,1,N,DIRT,55,Atlanta,Fulton,10.874059,2.032686,NS,Y,N,N,N,Sign,33.654945,-84.355874,13121007200,Census Tract 72,33.6563757,-84.3609353,16.2,27083,2136,14787.7, ADA_Access Sidewalk,0
29,212199,FORREST PARK RD SE @ EISENHOWER RD SE,N,1,N,DIRT,55,Atlanta,Fulton,13.732863,2.850085,FS,N,Y,N,N,Sign,33.657139,-84.355506,13121007200,Census Tract 72,33.6563757,-84.3609353,16.2,27083,2136,14787.7, ADA_Access Sidewalk,0
42,212200,FORREST PARK RD SE @ PINE FOREST DR SE,N,1,Y,DIRT,55,Atlanta,Fulton,23.037409,4.418463,FS,Y,Y,Y,Y,Sign,33.659807,-84.355474,13121007200,Census Tract 72,33.6563757,-84.3609353,16.2,27083,2136,14787.7,  ,0
61,212201,HUTCHENS RD SE @ FORREST PARK RD SE,W,1,N,DIRT,55,Atlanta,Fulton,12.372047,2.102776,FS,N,Y,N,N,Sign,33.665966,-84.355759,13121007200,Census Tract 72,33.6563757,-84.3609353,16.2,27083,2136,14787.7, ADA_Access Sidewalk,0
71,212205,HUTCHENS RD SE @ KATOMARICK DR SE,W,1,Y,DIRT,55,Atlanta,Fulton,18.143325,2.71772,FS,Y,Y,Y,Y,Sign,33.66812,-84.364132,13121007200,Census Tract 72,33.6563757,-84.3609353,16.2,27083,2136,14787.7,  ,0
76,212207,HUTCHENS RD SE @ KING SMITH RD SE,NW,1,N,DIRT,55,Atlanta,Fulton,16.233342,1.002156,NS,Y,Y,N,Y,Sign,33.669525,-84.367673,13121007300,Census Tract 73,33.6715465,-84.3791814,19.6,32044,6824,19671.5, ADA_Access ,0
86,212628,STONE RD SW @ N CAMP CREEK PKY SW,SE,1,N,DIRT,66,Atlanta,Fulton,10.531876,1.768674,NS,Y,Y,N,N,Sign,33.67255,-84.500602,13121007706,Census Tract 77.06,33.6739956,-84.5227940,21.7,45101,9597,29083.5, ADA_Access Sidewalk,0
135,159123,CLEVELAND AVE SE @ 365,W,1,Y,CONC,78,Atlanta,Fulton,42.483435,30.389895,OP,Y,Y,N,Y,MARTA Shelter,33.680621,-84.378063,13121007300,Census Tract 73,33.6715465,-84.3791814,19.6,32044,6824,19671.5,  ,1
139,159126,CLEVELAND AVE SE @ ALTAVIEW DR SE,W,0,N,DIRT,78,Atlanta,Fulton,6.831964,2.359357,FS,N,Y,N,N,Sign,33.68079,-84.382179,13121007300,Census Tract 73,33.6715465,-84.3791814,19.6,32044,6824,19671.5,Lighting ADA_Access Sidewalk,0
143,211328,OLD HAPEVILL RD @ CLEVELAND AVE,N,1,Y,CONC,178,Atlanta,Fulton,30.501861,49.939123,NS,Y,Y,Y,Y,MARTA Shelter,33.680983,-84.393609,13121007300,Census Tract 73,33.6715465,-84.3791814,19.6,32044,6824,19671.5,  ,1
149,137038,METROPOLITAN PKY SW@CLEVELAND AVE S,N,1,Y,DIRT,95,Atlanta,Fulton,96.255751,39.114686,NS,Y,Y,Y,Y,Sign,33.681059,-84.40758,13121007400,Census Tract 74,33.6789102,-84.4070935,40,19740,3412,12112.3,  ,0
150,159128,CLEVELAND AVE SE @ BROWNS MILL RD SE,W,1,Y,DIRT,78,Atlanta,Fulton,30.996615,14.394973,FS,Y,Y,Y,Y,Sign,33.681074,-84.384732,13121007001,Census Tract 70.01,33.6915165,-84.3868055,25,29528,4539,14048.4,  ,0
152,159302,CLEVELAND AVE SW @ MACON DR SW,W,0,Y,CONC,78,Atlanta,Fulton,47.749817,7.130489,NS,Y,Y,Y,Y,Sign,33.68116,-84.388657,13121007001,Census Tract 70.01,33.6915165,-84.3868055,25,29528,4539,14048.4,Lighting  ,0
153,158310,CLEVELAND AVE SW @ METROPOLITAN PKWY,E,1,Y,CONC,78,Atlanta,Fulton,104.634969,242.841985,NS,Y,Y,Y,Y,MARTA Bench,33.68118,-84.40826,13121007400,Census Tract 74,33.6789102,-84.4070935,40,19740,3412,12112.3,  ,0
160,158318,CLEVELAND AVE SW @ THIRD AVE,W,1,Y,DIRT,78,Atlanta,Fulton,13.079704,2.070781,NS,Y,Y,Y,Y,Sign,33.68127,-84.40239,13121007400,Census Tract 74,33.6789102,-84.4070935,40,19740,3412,12112.3,  ,0
164,158322,CLEVELAND AVE SW @ METROPOLITAN PKWY SW,W,1,Y,CONC,78,Atlanta,Fulton,232.153568,97.619474,NS,Y,Y,Y,Y,MARTA Bench,33.681346,-84.407551,13121007400,Census Tract 74,33.6789102,-84.4070935,40,19740,3412,12112.3,  ,0
167,158323,CLEVELAND AVE@650,W,1,Y,DIRT,78,Atlanta,Fulton,0,0,OP,Y,Y,Y,Y,Sign,33.68146,-84.41009,13121007400,Census Tract 74,33.6789102,-84.4070935,40,19740,3412,12112.3,  ,0
172,211203,OLD HAPEVILLE RD SW@2672,N,1,Y,DIRT,178,Atlanta,Fulton,16.260747,1.897302,AT,Y,Y,Y,Y,Sign,33.68208,-84.394062,13121007001,Census Tract 70.01,33.6915165,-84.3868055,25,29528,4539,14048.4,  ,0
180,144020,GREENBRIAR PKWY SW @ 3480,N,1,N,DIRT,83;183,Atlanta,Fulton,4.651915,0.824288,AT,Y,Y,N,N,Sign,33.682966,-84.503503,13121007706,Census Tract 77.06,33.6739956,-84.5227940,21.7,45101,9597,29083.5, ADA_Access Sidewalk,0
188,210501,GREENBRIAR PKWY SW @ 3378,E,1,Y,CONC,83;183,Atlanta,Fulton,114.861403,10.161601,AT,Y,Y,Y,Y,MARTA Shelter,33.683991,-84.500573,13121007706,Census Tract 77.06,33.6739956,-84.5227940,21.7,45101,9597,29083.5,  ,1
190,149032,OLD HAPEVILLE RD SW@JUDY  SW,NE,1,Y,DIRT,178,Atlanta,Fulton,13.14875,3.052298,NS,Y,Y,Y,Y,Sign,33.684074,-84.392715,13121007001,Census Tract 70.01,33.6915165,-84.3868055,25,29528,4539,14048.4,  ,0
195,144014,BARGE RD SW @ BUNKER HILL DR SW,S,1,Y,DIRT,83;183,Atlanta,Fulton,17.689916,1.798873,NS,Y,Y,Y,Y,Sign,33.684635,-84.506342,13121007706,Census Tract 77.06,33.6739956,-84.5227940,21.7,45101,9597,29083.5,  ,0
203,211650,JONESBORO RD SE @ 2491,S,1,Y,DIRT,55;78,Atlanta,Fulton,35.912852,34.086471,AT,Y,Y,Y,Y,Sign,33.685335,-84.364793,13121007002,Census Tract 70.02,33.6920888,-84.3682100,5.5,45451,2651,20640.7,  ,0
237,145026,GREENBRIAR PKWY @ THE FONTAINEBLEAU,SW,1,Y,CONC,66;83;93;183,Atlanta,Fulton,164.175341,319.468383,NS,Y,Y,Y,Y,MARTA Shelter,33.688256,-84.489702,13121007705,Census Tract 77.05,33.6831530,-84.4909911,27.5,25906,4043,18419.6,  ,1
239,211408,JONESBORO RD SE@MCWILLIAMS RD SE,N,1,Y,DIRT,55,Atlanta,Fulton,30.475753,4.558319,NS,Y,Y,Y,N,Sign,33.688665,-84.363947,13121007002,Census Tract 70.02,33.6920888,-84.3682100,5.5,45451,2651,20640.7,  Sidewalk,0
241,150026,MCWILLIAMS RD SE @ JONESBORO RD SE,E,0,Y,DIRT,78,Atlanta,Fulton,22.982911,47.649034,NS,Y,Y,Y,Y,Sign,33.688701,-84.36411,13121007002,Census Tract 70.02,33.6920888,-84.3682100,5.5,45451,2651,20640.7,Lighting  ,0
243,150050,MCWILLIAMS RD SE @ BROWNS MILL RD SE,E,1,N,CONC,78,Atlanta,Fulton,14.719968,18.272304,FS,Y,Y,Y,Y,Sign,33.688787,-84.373875,13121007002,Census Tract 70.02,33.6920888,-84.3682100,5.5,45451,2651,20640.7, ADA_Access ,0
244,150022,MCWILLIAMS RD SE @ CAREY DR SE,E,1,Y,DIRT,78,Atlanta,Fulton,26.129355,40.638038,FS,Y,Y,Y,Y,Sign,33.688788,-84.36978,13121007002,Census Tract 70.02,33.6920888,-84.3682100,5.5,45451,2651,20640.7,  ,0
259,150028,JONESBORO RD SE@MIDWAY ST SE,N,0,N,DIRT,55,Atlanta,Fulton,4.238361,3.124325,NS,N,N,N,N,Sign,33.689892,-84.364035,13121007002,Census Tract 70.02,33.6920888,-84.3682100,5.5,45451,2651,20640.7,Lighting ADA_Access Sidewalk,0
298,145022,GREENBRIAR PKWY SW @ CAMPBELLTON RD SW,SE,1,N,CONC,66;83;183,Atlanta,Fulton,2.364379,34.740035,FS,N,Y,N,Y,Sign,33.691526,-84.489695,13121007705,Census Tract 77.05,33.6831530,-84.4909911,27.5,25906,4043,18419.6, ADA_Access ,0
345,149035,MACON DR@LANG DR,N,1,N,DIRT,178,Atlanta,Fulton,6.761885,2.260557,FS,N,N,N,N,Sign,33.694454,-84.390141,13121007001,Census Tract 70.01,33.6915165,-84.3868055,25,29528,4539,14048.4, ADA_Access Sidewalk,0
380,151016,FORREST PARK RD SE @ NORWOOD RD SE,N,1,Y,CONC,4,Atlanta,Fulton,9.026945,0.654438,NS,Y,Y,Y,Y,MARTA Shelter,33.696848,-84.36004,13121007100,Census Tract 71,33.6963574,-84.3546555,21.8,25489,2751,15235.2,  ,1
390,211405,HARPER RD SE @ BROWNS MILL RD SE,W,1,N,DIRT,55,Atlanta,Fulton,20.643229,1.876067,NS,N,Y,N,N,Sign,33.69696,-84.373728,13121007002,Census Tract 70.02,33.6920888,-84.3682100,5.5,45451,2651,20640.7, ADA_Access Sidewalk,0
391,211592,HARPER RD SE @ JERNIGAN DR SE,W,1,N,DIRT,55,Atlanta,Fulton,8.133279,0.31879,NS,N,N,N,N,Sign,33.69696,-84.372294,13121007002,Census Tract 70.02,33.6920888,-84.3682100,5.5,45451,2651,20640.7, ADA_Access Sidewalk,0
409,121128,PANTHER TRL SW@CHILDRESS DR SW,E,0,N,DIRT,66,Atlanta,Fulton,15.055948,2.954357,NS,N,Y,N,N,Sign,33.698129,-84.486221,13121007704,Census Tract 77.04,33.7103251,-84.4851056,32.4,35814,5878,19400.8,Lighting ADA_Access Sidewalk,0
411,121134,MT GILEAD RD SW @ CASCADE PARC BLVD,E,1,N,DIRT,66,Atlanta,Fulton,31.178343,12.815055,NS,N,Y,N,N,Sign,33.698248,-84.496488,13121007704,Census Tract 77.04,33.7103251,-84.4851056,32.4,35814,5878,19400.8, ADA_Access Sidewalk,0
422,149045,LAKEWOOD AVE @ LAKEWOOD WAY,S,1,N,DIRT,42;178,Atlanta,Fulton,19.175116,6.339181,FS,Y,Y,N,Y,Sign,33.698895,-84.392884,13121006700,Census Tract 67,33.7021727,-84.3954527,26.7,25651,3966,19372.1, ADA_Access ,0
450,139018,BROWNS MILL RD SE@ADELLE ST SE,N,1,Y,DIRT,55;155,Atlanta,Fulton,8.513469,1.271405,FS,Y,Y,Y,Y,Sign,33.7005,-84.37558,13121007002,Census Tract 70.02,33.6920888,-84.3682100,5.5,45451,2651,20640.7,  ,0
500,210654,PRYOR RD@FAIR DR,S,1,N,DIRT,42,Atlanta,Fulton,1.605435,2.841637,NS,Y,Y,N,Y,Sign,33.702666,-84.39898,13121006700,Census Tract 67,33.7021727,-84.3954527,26.7,25651,3966,19372.1, ADA_Access ,0
502,139020,BROWNS MILL RD SE@JONESBORO RD SE,N,1,Y,DIRT,55;155,Atlanta,Fulton,44.283462,10.069484,NS,Y,Y,Y,Y,Sign,33.702709,-84.376502,13121007002,Census Tract 70.02,33.6920888,-84.3682100,5.5,45451,2651,20640.7,  ,0
527,122384,CAMPBELLTON RD@BENT CREEK WAY,W,0,Y,DIRT,83,Atlanta,Fulton,14.987373,82.675079,NS,Y,Y,Y,Y,Sign,33.704007,-84.46656,13121007602,Census Tract 76.02,33.7109013,-84.4621548,18.3,32500,2570,21245.8,Lighting  ,0
539,212834,JONESBORO RD SE @ SAWTELL AVE SE,N,1,Y,DIRT,55;155,Atlanta,Fulton,37.060613,5.161476,NS,Y,Y,Y,Y,Sign,33.705005,-84.378503,13121007002,Census Tract 70.02,33.6920888,-84.3682100,5.5,45451,2651,20640.7,  ,0
545,140098,HENRY THOMAS DR SE (W) @ MCDONOUGH BLVD SE,N,1,Y,DIRT,49,Atlanta,Fulton,32.778185,1.070662,NS,Y,Y,Y,Y,Sign,33.705211,-84.355296,13121007100,Census Tract 71,33.6963574,-84.3546555,21.8,25489,2751,15235.2,  ,0
558,122003,CAMPBELLTON RD @ 2170,E,1,Y,CONC,83,Atlanta,Fulton,37.420287,24.61596,AT,Y,Y,Y,Y,Sign,33.705557,-84.459225,13121007604,Census Tract 76.04,33.7010616,-84.4654727,39,21863,2575,18962.7,  ,0
563,122060,CAMPBELLTON RD SW@2191,SW,0,Y,DIRT,83,Atlanta,Fulton,23.881782,64.638436,AT,Y,Y,Y,Y,Sign,33.705915,-84.459409,13121007602,Census Tract 76.02,33.7109013,-84.4621548,18.3,32500,2570,21245.8,Lighting  ,0
568,140076,MCDONOUGH BLVD SE @ HENRY THOMAS DR SE,NW,1,N,DIRT,49,Atlanta,Fulton,24.515729,0.696837,FS,Y,Y,N,Y,Sign,33.706132,-84.356275,13121007100,Census Tract 71,33.6963574,-84.3546555,21.8,25489,2751,15235.2, ADA_Access ,0
573,122380,CAMPBELLTON RD@DELOWE DR,E,1,Y,CONC,83,Atlanta,Fulton,60.797628,52.60083,NS,Y,Y,Y,Y,Sign,33.706301,-84.457545,13121007604,Census Tract 76.04,33.7010616,-84.4654727,39,21863,2575,18962.7,  ,0
578,121120,LANDRUM DR SW @ CHILDRESS DR SW,E,1,Y,DIRT,66,Atlanta,Fulton,43.494363,13.729703,FS,Y,Y,Y,Y,Sign,33.706379,-84.487998,13121007704,Census Tract 77.04,33.7103251,-84.4851056,32.4,35814,5878,19400.8,  ,0
582,122005,CAMPBELLTON RD@DELOWE DR,W,1,Y,CONC,83,Atlanta,Fulton,49.800138,142.226322,NS,Y,Y,Y,Y,Sign,33.706608,-84.457223,13121007602,Census Tract 76.02,33.7109013,-84.4621548,18.3,32500,2570,21245.8,  ,0
583,139050,JONESBORO RD SE@WHATLEY ST SE,S,0,Y,DIRT,55;155,Atlanta,Fulton,8.037179,57.056964,NS,Y,Y,Y,Y,Sign,33.706679,-84.379645,13121006700,Census Tract 67,33.7021727,-84.3954527,26.7,25651,3966,19372.1,Lighting  ,0
593,122382,CAMPBELLTON RD @ CENTRA VILLA DR,SW,1,Y,CONC,83,Atlanta,Fulton,50.89422,182.230961,NS,Y,Y,Y,Y,MARTA Shelter,33.707257,-84.455532,13121007602,Census Tract 76.02,33.7109013,-84.4621548,18.3,32500,2570,21245.8,  ,1
600,138106,JONESBORO RD@LAKEWOOD AVE,N,1,Y,CONC,55,Atlanta,Fulton,32.63684,6.29228,FS,Y,Y,Y,Y,Sign,33.707535,-84.38015,13121006700,Census Tract 67,33.7021727,-84.3954527,26.7,25651,3966,19372.1,  ,0
627,122028,CAMPBELLTON RD SW@FORT VALLEY DR SW,NE,1,Y,DIRT,83,Atlanta,Fulton,11.012706,1.824043,NS,Y,Y,Y,Y,Sign,33.708794,-84.45079,13121007603,Census Tract 76.03,33.7065095,-84.4403830,55.1,13456,4565,12942.3,  ,0
635,138002,JONESBORO RD SE@LETHEA ST SE,NW,1,Y,CONC,55,Atlanta,Fulton,11.889895,2.239812,NS,Y,Y,Y,Y,Sign,33.709336,-84.381146,13121006700,Census Tract 67,33.7021727,-84.3954527,26.7,25651,3966,19372.1,  ,0
662,122032,CAMPBELLTON RD SW @ WILLOWBROOK DR,NE,1,Y,CONC,83,Atlanta,Fulton,40.195156,11.975905,NS,Y,Y,Y,Y,Simme Seat,33.710807,-84.446926,13121007603,Census Tract 76.03,33.7065095,-84.4403830,55.1,13456,4565,12942.3,  ,0
674,122074,CAMPBELLTON RD SW @ RIDGEWOOD LN SW,NE,1,N,CONC,83;162,Atlanta,Fulton,73.531601,9.73186,FS,Y,Y,N,Y,MARTA Shelter,33.711455,-84.442171,13121007603,Census Tract 76.03,33.7065095,-84.4403830,55.1,13456,4565,12942.3, ADA_Access ,1
689,122076,CAMPBELLTON RD SW@ALMA ST SW,E,1,N,DIRT,83;162,Atlanta,Fulton,12.460048,6.85731,NS,N,N,N,N,Sign,33.712264,-84.439666,13121007603,Census Tract 76.03,33.7065095,-84.4403830,55.1,13456,4565,12942.3, ADA_Access Sidewalk,0
718,122080,CAMPBELLTON RD SW @ 1469,E,1,N,DIRT,83;162,Atlanta,Fulton,17.266443,11.93467,OP,Y,N,N,N,Sign,33.713683,-84.436282,13121007603,Census Tract 76.03,33.7065095,-84.4403830,55.1,13456,4565,12942.3, ADA_Access Sidewalk,0
727,124068,METROPOLITAN PKY SW@DECKNER AVE SW,N,1,Y,CONC,95,Atlanta,Fulton,7.066435,2.601775,NS,Y,Y,Y,Y,Sign,33.713963,-84.407806,13121006500,Census Tract 65,33.7141012,-84.4101267,13,50163,3843,34823.9,  ,0
734,122082,CAMPBELLTON RD SW @ VENETIAN DR SW,NE,1,N,CONC,83;162,Atlanta,Fulton,39.796328,8.053858,NS,N,Y,N,Y,MARTA Bench,33.71413,-84.43433,13121007603,Census Tract 76.03,33.7065095,-84.4403830,55.1,13456,4565,12942.3, ADA_Access ,0
785,124070,METROPOLITAN PKY SW@LYNNHAVEN DR SW,N,0,Y,DIRT,95,Atlanta,Fulton,26.054576,6.627964,NS,Y,Y,Y,Y,Sign,33.715893,-84.407776,13121006500,Census Tract 65,33.7141012,-84.4101267,13,50163,3843,34823.9,Lighting  ,0
822,123028,CAMPBELLTON RD SW@OAKLAND DR SW,SW,0,Y,DIRT,83;162,Atlanta,Fulton,36.019401,0.044444,NS,Y,Y,Y,Y,Sign,33.717639,-84.427377,13121006602,Census Tract 66.02,33.7186105,-84.4286624,37.4,25375,1248,15162.7,Lighting  ,0
843,125046,JONESBORO RD SE @ MCDONOUGH BLVD SE,NW,1,Y,DIRT,55,Atlanta,Fulton,28.3852,5.034627,NS,Y,Y,Y,Y,Sign,33.719056,-84.384956,13121005502,Census Tract 55.02,33.7162175,-84.3867651,20.2,21804,2846,16659.2,  ,0
856,121153,CASCADE RD SW@LYNWAY LN SW,W,1,N,DIRT,66;71,Atlanta,Fulton,10.25142,26.498443,NS,Y,Y,N,N,Sign,33.719899,-84.486212,13121007900,Census Tract 79,33.7322732,-84.4910511,4.3,61125,5210,45408.7, ADA_Access Sidewalk,0
863,121138,CASCADE RD SW @ DODSON DR SW,E,1,Y,CONC,71,Atlanta,Fulton,8.561772,2.035047,NS,Y,Y,Y,Y,Sign,33.720106,-84.471542,13121007704,Census Tract 77.04,33.7103251,-84.4851056,32.4,35814,5878,19400.8,  ,0
864,121063,CASCADE RD SW @ CHILDRESS DR,E,1,N,DIRT,71,Atlanta,Fulton,1.772739,0.578125,NS,N,N,N,N,Sign,33.720126,-84.490309,13121007704,Census Tract 77.04,33.7103251,-84.4851056,32.4,35814,5878,19400.8, ADA_Access Sidewalk,0
865,125048,MCDONOUGH BLVD SE@MARCY ST SE,NW,1,Y,DIRT,55,Atlanta,Fulton,3.927256,0.304116,FS,Y,Y,Y,Y,Sign,33.720228,-84.38625,13121005502,Census Tract 55.02,33.7162175,-84.3867651,20.2,21804,2846,16659.2,  ,0
884,122250,CASCADE RD SW @ POLLARD DR SW,E,1,Y,CONC,71,Atlanta,Fulton,15.496091,5.284289,NS,Y,Y,Y,Y,MARTA Shelter,33.721316,-84.455549,13121008000,Census Tract 80,33.7245322,-84.4555815,16.3,43854,5529,25607.8,  ,1
887,211309,UNIVERSITY AVE SW @ PRYOR RD SW,E,1,N,DIRT,55,Atlanta,Fulton,12.365854,24.997727,FS,Y,Y,N,N,Sign,33.721407,-84.392425,13121006300,Census Tract 63,33.7237613,-84.3997049,38.3,31483,1492,24729.6, ADA_Access Sidewalk,0
896,127021,MORELAND AVE @ VICKERS ST,S,1,Y,CONC,4;832,Atlanta,Fulton,17.662883,44.735907,NS,Y,Y,Y,Y,MARTA Shelter,33.721871,-84.3495,13121006900,Census Tract 69,33.7183136,-84.3587704,16.5,73429,3483,35686.5,  ,1
922,124058,METROPOLITAN PKY SW @ UNIVERSITY AVE,S,1,Y,DIRT,95,Atlanta,Fulton,13.473699,67.716196,NS,Y,Y,Y,Y,Sign,33.722273,-84.40791,13121005800,Census Tract 58,33.7318610,-84.4105985,23.4,42679,1479,25237.5,  ,0
950,122240,CASCADE AVE SW @ AVON AVE SW,NE,1,Y,DIRT,71,Atlanta,Fulton,14.514014,2.815321,NS,Y,Y,Y,Y,Sign,33.723175,-84.45027,13121008000,Census Tract 80,33.7245322,-84.4555815,16.3,43854,5529,25607.8,  ,0
962,124077,METROPOLITAN PKY SW@MAYLAND AVE SW,N,1,Y,CONC,95,Atlanta,Fulton,12.95366,3.972062,NS,Y,Y,Y,Y,Sign,33.724471,-84.407749,13121006300,Census Tract 63,33.7237613,-84.3997049,38.3,31483,1492,24729.6,  ,0
1017,127040,UNITED AVE @ UNDERWOOD AVE,W,1,N,DIRT,832,Atlanta,Fulton,21.722655,5.52987,NS,Y,Y,N,Y,Sign,33.72664,-84.357185,13121005200,Census Tract 52,33.7355107,-84.3544773,4.5,111759,5170,59445.1, ADA_Access ,0
1033,211401,UNITED AVE @ CONFEDERATE CT,W,1,N,DIRT,832,Atlanta,Fulton,25.986615,2.927381,NS,Y,Y,N,Y,Sign,33.727363,-84.362304,13121005200,Census Tract 52,33.7355107,-84.3544773,4.5,111759,5170,59445.1, ADA_Access ,0
1043,900142,CASCADE AVE SW @ ORLANDO ST SW,E,0,Y,DIRT,71,Atlanta,Fulton,26.103656,2.302042,NS,Y,Y,Y,Y,Sign,33.727827,-84.443085,13121006100,Census Tract 61,33.7277552,-84.4370324,20.4,29323,3908,15885.3,Lighting  ,0
1058,113150,MERRILL AVE SW@HALL ST SW,E,0,Y,DIRT,81,Atlanta,Fulton,3.92136,0.197082,NS,Y,Y,Y,N,Sign,33.728641,-84.425631,13121006200,Census Tract 62,33.7284830,-84.4217305,24.1,37500,1725,18046.7,Lighting  Sidewalk,0
1067,115174,HANK AARON DR@VANIRA AVE SE,N,1,Y,CONC,55,Atlanta,Fulton,11.247551,2.239115,NS,Y,Y,Y,Y,Sign,33.728989,-84.387825,13121005501,Census Tract 55.01,33.7298670,-84.3837371,24.5,37647,2547,25104.4,  ,0
1081,900209,CASCADE AVE SW@PINEVIEW TER SW,NE,1,Y,DIRT,71,Atlanta,Fulton,23.245571,1.837692,NS,Y,Y,Y,Y,Sign,33.729683,-84.440666,13121006100,Census Tract 61,33.7277552,-84.4370324,20.4,29323,3908,15885.3,  ,0
1106,212799,ATLANTA AVE SE @ MARION AVE SE,W,1,Y,DIRT,832,Atlanta,Fulton,8.133369,0.3,NS,Y,Y,Y,Y,Sign,33.730433,-84.365544,13121005300,Census Tract 53,33.7321402,-84.3708876,8.4,102303,3861,60699.7,  ,0
1108,211397,FLAT SHOALS RD SE@ROCKLAND DR SE,NW,1,N,DIRT,74,Atlanta,DeKalb,3.984111,0.647774,NS,Y,Y,N,N,Sign,33.730511,-84.330234,13089020900,Census Tract 209,33.7363585,-84.3370089,7.8,71618,5927,47614, ADA_Access Sidewalk,0
1122,900211,CASCADE AVE SW@RICHLAND RD SW,NE,0,Y,CONC,71,Atlanta,Fulton,27.025504,3.662791,NS,Y,Y,Y,Y,Sign,33.731194,-84.439178,13121006100,Census Tract 61,33.7277552,-84.4370324,20.4,29323,3908,15885.3,Lighting  ,0
1143,900212,CASCADE AVE SW@WESTHAVEN DR SW,NE,0,Y,CONC,71,Atlanta,Fulton,24.599699,2.216216,NS,Y,Y,Y,Y,Sign,33.731964,-84.438454,13121006100,Census Tract 61,33.7277552,-84.4370324,20.4,29323,3908,15885.3,Lighting  ,0
1174,900247,CASCADE AVE SW @ BEECHER ST SW,NE,1,Y,CONC,71,Atlanta,Fulton,46.655305,6.250809,NS,Y,Y,Y,Y,Sign,33.733199,-84.437509,13121006100,Census Tract 61,33.7277552,-84.4370324,20.4,29323,3908,15885.3,  ,0
1206,115188,HANK AARON DR @ BILL LUCAS DR SE,N,1,Y,DIRT,55,Atlanta,Fulton,2.62265,1.161762,NS,Y,Y,Y,Y,Sign,33.734406,-84.387848,13121005501,Census Tract 55.01,33.7298670,-84.3837371,24.5,37647,2547,25104.4,  ,0
1220,900147,CASCADE AVE SW@ALLEGHENY ST SW,NE,1,Y,DIRT,71,Atlanta,Fulton,41.645458,4.804017,NS,Y,Y,Y,Y,Sign,33.734879,-84.436554,13121006000,Census Tract 60,33.7379611,-84.4390857,26.1,38708,3722,22271,  ,0
1223,115148,COOPER ST SW@LOVE ST SW,N,1,Y,DIRT,42,Atlanta,Fulton,1.540278,0.077104,FS,Y,Y,Y,Y,Sign,33.735009,-84.396956,13121012000,Census Tract 120,33.7361403,-84.3928230,35.4,27188,3311,20432.7,  ,0
1308,113120,RALPH DAVID ABERNATH BLVD SW@ASHBY,E,1,Y,CONC,71,Atlanta,Fulton,22.460916,64.162466,NS,Y,Y,Y,Y,Sign,33.737913,-84.418205,13121004200,Census Tract 42,33.7390424,-84.4181854,52.6,18913,2477,21927.6,  ,0
1310,113116,RALPH DAVID ABERNATH BLVD@PEEPLES,E,1,Y,CONC,71,Atlanta,Fulton,22.667338,14.225973,NS,Y,Y,Y,Y,Sign,33.738,-84.420632,13121004200,Census Tract 42,33.7390424,-84.4181854,52.6,18913,2477,21927.6,  ,0
1312,210579,COOPER ST@GLENN ST,N,1,Y,DIRT,49,Atlanta,Fulton,8.856943,1.405409,NS,Y,Y,Y,Y,Sign,33.738053,-84.397014,13121012000,Census Tract 120,33.7361403,-84.3928230,35.4,27188,3311,20432.7,  ,0
1315,900149,CASCADE AVE SW @ WESTWOOD AVE SW,W,1,Y,DIRT,71,Atlanta,Fulton,35.272729,250.876941,NS,Y,Y,Y,Y,Sign,33.738094,-84.435317,13121006000,Census Tract 60,33.7379611,-84.4390857,26.1,38708,3722,22271,  ,0
1316,113068,RALPH DAVID ABERNATH BLVD@PEEPLES S,W,1,Y,DIRT,71,Atlanta,Fulton,15.124884,33.42915,NS,Y,Y,Y,Y,Sign,33.73811,-84.420235,13121004200,Census Tract 42,33.7390424,-84.4181854,52.6,18913,2477,21927.6,  ,0
1322,113122,RALPH DAVID ABERNATH BLVD SW@EVANS,E,1,Y,DIRT,1;58;71,Atlanta,Fulton,28.368096,94.840599,NS,Y,Y,Y,Y,Sign,33.738201,-84.415785,13121004200,Census Tract 42,33.7390424,-84.4181854,52.6,18913,2477,21927.6,  ,0
1330,113166,RALPH D ABERNATHY BLVD SW @ DUNN ST SW,W,1,Y,CONC,71,Atlanta,Fulton,101.153501,0.115627,NS,Y,Y,Y,Y,MARTA Shelter,33.738338,-84.416122,13121004200,Census Tract 42,33.7390424,-84.4181854,52.6,18913,2477,21927.6,  ,1
1346,903419,S GORDON ST SW @ WESTWOOD AVE SW,N,1,Y,CONC,68,Atlanta,Fulton,21.412741,1.253401,NS,Y,Y,Y,Y,Sign,33.73857,-84.446462,13121006000,Census Tract 60,33.7379611,-84.4390857,26.1,38708,3722,22271,  ,0
1386,117030,GLENWOOD AVE SE @ BILL KENNEDY WAY SE,W,1,Y,CONC,107,Atlanta,Fulton,23.876696,6.426766,NS,Y,Y,Y,Y,Sign,33.739814,-84.357604,13121005200,Census Tract 52,33.7355107,-84.3544773,4.5,111759,5170,59445.1,  ,0
1453,117118,MORELAND AVE SE @ METROPOLITAN AVE SE,N,1,Y,DIRT,4;32;74,Atlanta,Fulton,17.250741,11.416191,NS,Y,Y,Y,Y,Sign,33.74122,-84.34914,13089020900,Census Tract 209,33.7363585,-84.3370089,7.8,71618,5927,47614,  ,0
1464,212044,BILL KENNEDY WAY SE @ FAITH AVE SE,N,1,Y,CONC,107,Atlanta,Fulton,44.509342,17.219672,FS,Y,Y,Y,Y,Sign,33.741919,-84.358126,13121005200,Census Tract 52,33.7355107,-84.3544773,4.5,111759,5170,59445.1,  ,0
1477,100090,LUCILE AVE SW @ ATWOOD ST SW,E,1,N,CONC,58,Atlanta,Fulton,11.966402,3.21545,NS,Y,Y,N,Y,Sign,33.742262,-84.428855,13121004100,Census Tract 41,33.7408497,-84.4280690,16.7,54208,2214,24891, ADA_Access ,0
1518,900062,EVA DAVIS WAY @ FOREST LAKES AVE,N,1,Y,DIRT,24,Atlanta,DeKalb,6.84471,1.418913,NS,Y,Y,Y,Y,Sign,33.743598,-84.31481,13089020802,Census Tract 208.02,33.7468474,-84.3021431,15,73981,4411,41281.5,  ,0
1523,102546,CENTRAL AVE@PULLIAM ST,N,0,Y,DIRT,42,Atlanta,Fulton,2.798464,0.55395,NS,Y,Y,Y,Y,Sign,33.743984,-84.393218,13121012000,Census Tract 120,33.7361403,-84.3928230,35.4,27188,3311,20432.7,Lighting  ,0
1554,103083,HILL ST SE @ WOODWARD AVE SE,N,1,Y,DIRT,9;186,Atlanta,Fulton,10.473078,11.341748,NS,Y,Y,Y,Y,Sign,33.745528,-84.379248,13121004900,Census Tract 49,33.7409122,-84.3794479,12.4,84655,2835,46973.7,  ,0
1560,211466,PETERS ST SW@ WALKER ST SW,NE,1,N,DIRT,813,Atlanta,Fulton,21.901718,3.396401,NS,Y,Y,N,Y,Sign,33.745729,-84.403521,13121004300,Census Tract 43,33.7453620,-84.4091076,20.3,36750,2846,16606.3, ADA_Access ,0
1561,211457,MCDANIEL ST @ NORTHSIDE DR SW,SE,1,Y,DIRT,813,Atlanta,Fulton,38.953663,4.765185,FS,Y,Y,Y,Y,Sign,33.745825,-84.406087,13121004300,Census Tract 43,33.7453620,-84.4091076,20.3,36750,2846,16606.3,  ,0
1591,104068,MEMORIAL DR SE @ CHESTER AVE SE,W,1,Y,CONC,21;107,Atlanta,Fulton,38.489418,12.343143,NS,Y,Y,Y,Y,Sign,33.746627,-84.359052,13121003200,Census Tract 32,33.7498233,-84.3650959,4.5,111830,2389,93771.3,  ,0
1623,106168,MEMORIAL DR SE @ CANDLER RD SE,E,1,Y,CONC,21;823,Atlanta,DeKalb,57.162332,21.99379,FS,Y,Y,Y,Y,MARTA Shelter,33.747039,-84.291395,13089020802,Census Tract 208.02,33.7468474,-84.3021431,15,73981,4411,41281.5,  ,1
1627,106433,MEMORIAL DR SE @ CANDLER RD SE,W,1,Y,CONC,21;823,Atlanta,DeKalb,24.298173,58.768704,NS,Y,Y,Y,Y,Other Bench,33.747111,-84.291634,13089020802,Census Tract 208.02,33.7468474,-84.3021431,15,73981,4411,41281.5,  ,0
1646,106084,CANDLER RD @ MEMORIAL DR SE,S,1,Y,CONC,15,Atlanta,DeKalb,61.515363,24.060627,NS,Y,Y,Y,Y,MARTA Bench,33.747263,-84.292145,13089020802,Census Tract 208.02,33.7468474,-84.3021431,15,73981,4411,41281.5,  ,0
1654,105218,MEMORIAL DR SE@DOUGLAS ST SE,E,1,Y,DIRT,21,Atlanta,DeKalb,0.71505,6.851903,NS,Y,Y,Y,N,Sign,33.747313,-84.319886,13089023700,Census Tract 237,33.7313084,-84.3183573,11.2,47712,6054,26696.8,  Sidewalk,0
1662,105455,MEMORIAL DR SE @ DOUGLAS ST SE,W,1,Y,CONC,21,Atlanta,DeKalb,4.662723,1.431619,NS,Y,Y,Y,Y,Sign,33.747366,-84.319451,13089020801,Census Tract 208.01,33.7558505,-84.3162082,2.6,94662,2509,54075.3,  ,0
1671,105448,MEMORIAL DR SE @ WARREN ST SE,W,1,N,CONC,21,Atlanta,DeKalb,14.719057,27.384796,NS,N,Y,Y,Y,Sign,33.747429,-84.326234,13089020700,Census Tract 207,33.7538959,-84.3249841,12.4,95417,2634,43834.6, ADA_Access ,0
1673,105228,MEMORIAL DR SE @ WILKINSON DR SE,W,0,Y,CONC,21,Atlanta,DeKalb,18.238346,6.738908,NS,Y,Y,Y,Y,Sign,33.747447,-84.328539,13089020700,Census Tract 207,33.7538959,-84.3249841,12.4,95417,2634,43834.6,Lighting  ,0
1677,105572,MEMORIAL DR @ E LAKE TER,W,1,Y,CONC,21,Atlanta,DeKalb,17.7492,10.810035,NS,Y,Y,Y,Y,MARTA Bench,33.74749,-84.313846,13089020802,Census Tract 208.02,33.7468474,-84.3021431,15,73981,4411,41281.5,  ,0
1679,105452,MEMORIAL DR @ PALATKA ST SE,W,1,Y,DIRT,21,Atlanta,DeKalb,0.687002,0.084239,FS,Y,Y,Y,Y,Sign,33.747494,-84.321144,13089020700,Census Tract 207,33.7538959,-84.3249841,12.4,95417,2634,43834.6,  ,0
1686,105232,MEMORIAL DR SE @ CLIFTON ST SE,W,1,N,DIRT,21,Atlanta,DeKalb,57.696673,7.643993,NS,N,Y,Y,N,Sign,33.747524,-84.331581,13089020500,Census Tract 205,33.7526586,-84.3416194,14.9,65694,3161,42099.4, ADA_Access Sidewalk,0
1694,105240,MEMORIAL DR SE@LAMON AVE SE,W,0,Y,CONC,21,Atlanta,DeKalb,2.985355,0.476541,NS,Y,Y,Y,Y,Sign,33.747555,-84.338493,13089020500,Census Tract 205,33.7526586,-84.3416194,14.9,65694,3161,42099.4,Lighting  ,0
1698,105234,MEMORIAL DR SE @ WYMAN ST SE,W,1,Y,CONC,21,Atlanta,DeKalb,8.953872,6.346175,NS,Y,Y,Y,Y,Sign,33.747627,-84.332749,13089020500,Census Tract 205,33.7526586,-84.3416194,14.9,65694,3161,42099.4,  ,0
1707,901047,MORELAND AVE SE @ MEMORIAL DR SE,SE,1,Y,DIRT,4;32;74,Atlanta,Fulton,25.50481,36.832092,NS,Y,Y,Y,Y,Sign,33.747774,-84.349311,13121003100,Census Tract 31,33.7520808,-84.3530446,18,62250,2051,45758.9,  ,0
1748,101126,PETERS ST SW @ HAYNES ST SW,N,1,Y,CONC,813,Atlanta,Fulton,5.393316,1.445991,NS,Y,Y,Y,Y,Sign,33.749075,-84.39975,13121003500,Census Tract 35,33.7508367,-84.3916061,10.2,53889,2074,27707.6,  ,0
1942,105184,HOSEA L WILLIAMS DR @ DOYLE ST SE,W,1,N,DIRT,24,Atlanta,DeKalb,5.82346,1.276899,FS,Y,Y,Y,Y,Sign,33.75272,-84.324722,13089020700,Census Tract 207,33.7538959,-84.3249841,12.4,95417,2634,43834.6, ADA_Access ,0
2004,900916,MARTIN L KING JR DR SW @ 2950,NE,1,Y,CONC,66;68;73;165,Atlanta,Fulton,35.522545,20.817305,AT,Y,Y,Y,Y,MARTA Bench,33.753763,-84.484662,13121008102,Census Tract 81.02,33.7418906,-84.4717028,26.4,27119,6647,22271.1,  ,0
2035,900976,MARTIN L KING J DR SW @ 2800,E,1,Y,DIRT,66;68;73;165,Atlanta,Fulton,44.401251,27.394145,AT,Y,Y,Y,Y,Sign,33.754318,-84.478042,13121008102,Census Tract 81.02,33.7418906,-84.4717028,26.4,27119,6647,22271.1,  ,0
2037,901193,MARTIN L KING JR DR SW @ PEYTON PL SW,W,1,N,DIRT,66;68;73;165;867,Atlanta,Fulton,45.206945,29.995653,NS,Y,Y,N,Y,Sign,33.754337,-84.476135,13121008102,Census Tract 81.02,33.7418906,-84.4717028,26.4,27119,6647,22271.1, ADA_Access ,0
2038,900917,MARTIN L KING JR DR SW @ LINKWOOD RD NW,E,1,Y,DIRT,66;68;73;165,Atlanta,Fulton,23.757346,17.180807,NS,Y,Y,Y,Y,Sign,33.754356,-84.481399,13121008102,Census Tract 81.02,33.7418906,-84.4717028,26.4,27119,6647,22271.1,  ,0
2113,103060,BOULEVARD NE @ OLD WHEAT ST NE,N,1,Y,CONC,809,Atlanta,Fulton,4.728015,12.112372,NS,Y,Y,Y,Y,Sign,33.755851,-84.37208,13121002900,Census Tract 29,33.7580053,-84.3693491,11.7,71210,2425,55438.1,  ,0
2126,900974,BOULEVARD NE @ OLD WHEAT ST NE,S,1,Y,DIRT,809,Atlanta,Fulton,4.55425,3.04867,NS,Y,Y,Y,Y,Sign,33.756034,-84.372228,13121002900,Census Tract 29,33.7580053,-84.3693491,11.7,71210,2425,55438.1,  ,0
2187,902913,CAROLINE ST @ 1245,E,1,Y,CONC,102,Atlanta,DeKalb,33.167317,49.178532,AT,Y,Y,Y,Y,Sign,33.758338,-84.347739,13089020500,Census Tract 205,33.7526586,-84.3416194,14.9,65694,3161,42099.4,  ,0
2193,902882,CAROLINE ST @ 1270,W,1,Y,DIRT,102,Atlanta,DeKalb,46.629405,28.282124,AT,Y,Y,Y,Y,Sign,33.758437,-84.347065,13089020500,Census Tract 205,33.7526586,-84.3416194,14.9,65694,3161,42099.4,  ,0
2222,903461,BOULEVARD NE @ CAIN ST NE,S,0,Y,CONC,809,Atlanta,Fulton,8.457167,6.897342,NS,Y,Y,Y,Y,Sign,33.759818,-84.372098,13121002900,Census Tract 29,33.7580053,-84.3693491,11.7,71210,2425,55438.1,Lighting  ,0
2227,905430,CARVER DR NW @ FAIRFIELD PL NW,E,1,Y,DIRT,867,Atlanta,Fulton,20.832946,4.870696,NS,Y,Y,Y,Y,Sign,33.759905,-84.463158,13121008301,Census Tract 83.01,33.7642262,-84.4588616,37.5,25060,2327,15765.7,  ,0
2228,900950,BOULEVARD NE @ FREEDOM PKWY NE,N,0,Y,DIRT,809,Atlanta,Fulton,6.039262,19.131474,NS,Y,Y,Y,Y,Sign,33.759951,-84.371762,13121002900,Census Tract 29,33.7580053,-84.3693491,11.7,71210,2425,55438.1,Lighting  ,0
2299,901355,JOSEPH E BOONE BLVD @ GRIFFIN ST NW,E,0,Y,CONC,51,Atlanta,Fulton,22.967859,18.787281,NS,Y,Y,Y,Y,Sign,33.763241,-84.411346,13121002500,Census Tract 25,33.7590745,-84.4126613,39.3,30283,2814,16237.6,Lighting  ,0
2301,900710,JOSEPH E BOONE BLVD @ JAMES P BRAWLEY,E,1,Y,CONC,51,Atlanta,Fulton,25.105845,12.712185,NS,Y,Y,Y,Y,Sign,33.763285,-84.412774,13121002500,Census Tract 25,33.7590745,-84.4126613,39.3,30283,2814,16237.6,  ,0
2305,211909,MARTIN L KING JR DR SW @ ADAMSVILLE PLACE PKWY  SW,SE,0, ,DIRT,73;856,Atlanta,Fulton,8.339287,2.755298,FS, ,Y,Y,Y,Sign,33.763349,-84.509221,13121007805,Census Tract 78.05,33.7542322,-84.5385907,27.4,31174,3397,20944.7,Lighting  ,0
2309,900906,JOSEPH E BOONE BLVD @ SUNSET AVE NW,E,1,Y,CONC,51,Atlanta,Fulton,15.075935,4.93538,FS,Y,Y,Y,Y,Other Bench,33.76338,-84.40976,13121002500,Census Tract 25,33.7590745,-84.4126613,39.3,30283,2814,16237.6,  ,0
2310,904341,JOSEPH E BOONE BLVD @ MAYSON TURNER,E,1,Y,DIRT,51,Atlanta,Fulton,18.872312,12.150168,NS,Y,Y,Y,Y,Sign,33.763402,-84.425488,13121002400,Census Tract 24,33.7586698,-84.4248089,32.4,28056,2902,19166.3,  ,0
2313,900805,JOSEPH E BOONE BLVD @ VINE ST NW,E,1,Y,CONC,51,Atlanta,Fulton,6.317528,2.832017,FS,Y,Y,Y,Y,MARTA Shelter,33.763412,-84.407518,13121002600,Census Tract 26,33.7587958,-84.4026296,27.6,33611,1672,17417.2,  ,1
2315,900708,JOSEPH E BOONE BLVD @ SCIPLE TER NW,E,1,Y,DIRT,51,Atlanta,Fulton,13.383474,8.413753,FS,Y,Y,Y,Y,Other Bench,33.763417,-84.414907,13121002500,Census Tract 25,33.7590745,-84.4126613,39.3,30283,2814,16237.6,  ,0
2317,904343,JOSEPH E BOONE BLVD NW @ TEMPLE ST NW,E,1,Y,CONC,51,Atlanta,Fulton,27.002493,17.22657,NS,Y,Y,Y,Y,MARTA Shelter,33.763437,-84.422177,13121002400,Census Tract 24,33.7586698,-84.4248089,32.4,28056,2902,19166.3,  ,1
2322,905153,JOSEPH E BOONE BLVD @ CHAPPELL RD,E,0,Y,CONC,51,Atlanta,Fulton,49.737697,23.220594,NS,Y,Y,Y,Y,Sign,33.763479,-84.433143,13121008400,Census Tract 84,33.7618564,-84.4355748,39.8,24183,2649,19424.6,Lighting  ,0
2324,904342,JOSEPH E BOONE BLVD @ ARCHER WAY NW,E,1,Y,DIRT,51,Atlanta,Fulton,16.652573,10.356647,FS,Y,Y,Y,Y,Sign,33.763481,-84.423479,13121002400,Census Tract 24,33.7586698,-84.4248089,32.4,28056,2902,19166.3,  ,0
2327,211507,JOSEPH E BOONE BLVD NW @ W LAKE DR NW,E,1,Y,DIRT,51;853,Atlanta,Fulton,31.549966,24.950854,NS,Y,Y,Y,Y,Sign,33.763493,-84.439636,13121008400,Census Tract 84,33.7618564,-84.4355748,39.8,24183,2649,19424.6,  ,0
2335,212016,JOSEPH E BOONE BLVD @ EDWARDS ST NW,W,1,Y,DIRT,51,Atlanta,Fulton,11.719583,10.15234,NS,Y,Y,Y,Y,Sign,33.763516,-84.403592,13121011800,Census Tract 118,33.7709168,-84.4088781,25.7,30972,1867,21117.8,  ,0
2343,211886,JOSEPH E BOONE BLVD @ AURORA AVE NW,E,1,Y,DIRT,51,Atlanta,Fulton,7.77628,5.004971,FS,Y,Y,Y,Y,Sign,33.763566,-84.455228,13121008301,Census Tract 83.01,33.7642262,-84.4588616,37.5,25060,2327,15765.7,  ,0
2379,901038,RALPH MCGILL BLVD NE@530,W,1,Y,DIRT,816;899,Atlanta,Fulton,1.221206,1.079158,AT,Y,Y,Y,Y,Sign,33.763989,-84.369486,13121001700,Census Tract 17,33.7659024,-84.3671952,7.8,94750,4911,62120.3,  ,0
2401,903954,JOSEPH E BOONE BLVD @ ANDERSON AVE NW,NE,1,Y,DIRT,51,Atlanta,Fulton,34.30164,37.263317,FS,Y,Y,Y,Y,Sign,33.764662,-84.45113,13121008302,Census Tract 83.02,33.7573898,-84.4522860,25.4,28318,1917,17086.6,  ,0
2411,900055,MORELAND AVE @ MCLENDON AVE,N,1,Y,CONC,6;102,Atlanta,Fulton,26.982026,27.368508,NS,Y,Y,Y,Y,Sign,33.764899,-84.349122,13089020400,Census Tract 204,33.7660727,-84.3443392,4.7,106103,2701,67674.8,  ,0
2429,901269,RALPH MCGILL BLVD@ASHLEY AVE,W,1,N,DIRT,816,Atlanta,Fulton,11.551723,0.409502,NS,Y,Y,N,Y,Sign,33.766005,-84.363475,13121001700,Census Tract 17,33.7659024,-84.3671952,7.8,94750,4911,62120.3, ADA_Access ,0
2469,903430,BOULEVARD NE @ RANKIN ST NE,S,0,N,CONC,809,Atlanta,Fulton,2.81616,1.221463,NS,Y,Y,N,Y,Sign,33.76739,-84.37198,13121001700,Census Tract 17,33.7659024,-84.3671952,7.8,94750,4911,62120.3,Lighting ADA_Access ,0
2472,900015,MORELAND AVE @ MANSFIELD AVE,N,1,Y,CONC,6;102,Atlanta,Fulton,21.442639,20.412488,NS,Y,Y,Y,Y,Sign,33.767701,-84.34896,13089020400,Census Tract 204,33.7660727,-84.3443392,4.7,106103,2701,67674.8,  ,0
2497,901008,CAMERON M ALEXANDER BLVD @ GRIFFIN ST NW,SE,1,Y,DIRT,50,Atlanta,Fulton,6.556779,2.460268,NS,Y,Y,Y,Y,Sign,33.768163,-84.411242,13121011800,Census Tract 118,33.7709168,-84.4088781,25.7,30972,1867,21117.8,  ,0
2498,901092,CAMERON M ALEXANDER BLVD @ SUNSET AVE NW,E,1,N,DIRT,50,Atlanta,Fulton,10.639198,2.639696,NS,Y,Y,N,Y,Sign,33.768164,-84.410002,13121011800,Census Tract 118,33.7709168,-84.4088781,25.7,30972,1867,21117.8, ADA_Access ,0
2530,903402,BOULEVARD NE @ MORGAN ST NE,S,0,Y,CONC,809,Atlanta,Fulton,0.478571,0.117816,FS,Y,Y,Y,Y,Sign,33.768699,-84.371983,13121001700,Census Tract 17,33.7659024,-84.3671952,7.8,94750,4911,62120.3,Lighting  ,0
2545,900800,HAMILTON E HOLMES DR NW @ BAKER RD NW,S,1,Y,DIRT,60;153;853,Atlanta,Fulton,26.020546,6.504221,NS,Y,Y,Y,Y,Sign,33.769176,-84.472037,13121008201,Census Tract 82.01,33.7699902,-84.4826837,28.5,38080,6367,22599.7,  ,0
2557,211456,NORTHSIDE DR NW @ NORTH AVE NW,N,1,Y,DIRT,50;94,Atlanta,Fulton,6.416049,11.034111,NS,Y,Y,Y,Y,Sign,33.769698,-84.404665,13121011800,Census Tract 118,33.7709168,-84.4088781,25.7,30972,1867,21117.8,  ,0
2590,904482,N HIGHLAND AVE @ NORTH AVE,S,1,Y,CONC,102;816,Atlanta,Fulton,14.531945,11.993351,NS,Y,Y,Y,Y,Sign,33.77111,-84.35256,13121001500,Census Tract 15,33.7764970,-84.3539007,15.6,66490,4617,66322,  ,0
2601,900943,NORTH AVE NE @ PARKWAY DR NE,W,1,Y,DIRT,102;899,Atlanta,Fulton,54.560922,14.815107,NS,Y,Y,Y,Y,Sign,33.771277,-84.372648,13121001300,Census Tract 13,33.7761933,-84.3715699,5.5,76188,4421,54315.2,  ,0
2603,904513,BOULEVARD NE @ NORTH AVE NE,S,0,Y,CONC,102;809,Atlanta,Fulton,26.805734,11.945091,NS,Y,Y,Y,Y,Sign,33.771286,-84.371986,13121001300,Census Tract 13,33.7761933,-84.3715699,5.5,76188,4421,54315.2,Lighting  ,0
2609,904657,DONALD L HOLLOWELL PKY @ CHAPPELL RD NW,W,0,Y,DIRT,50,Atlanta,Fulton,9.082887,10.934163,NS,Y,Y,Y,Y,Sign,33.771349,-84.433787,13121008500,Census Tract 85,33.7758562,-84.4443269,15.9,24890,2551,17865.9,Lighting  ,0
2623,904659,DONALD L HOLLOWELL PKY @ PIERCE AVE NW,W,1,Y,DIRT,50,Atlanta,Fulton,4.638214,1.954581,NS,Y,Y,Y,Y,Sign,33.771852,-84.431178,13121008500,Census Tract 85,33.7758562,-84.4443269,15.9,24890,2551,17865.9,  ,0
2644,904339,N HIGHLAND AVE NE @ BLUE RIDGE AVE NE,S,1,Y,CONC,102;816,Atlanta,Fulton,7.423531,6.086855,NS,Y,Y,Y,Y,Sign,33.772471,-84.352528,13121001500,Census Tract 15,33.7764970,-84.3539007,15.6,66490,4617,66322,  ,0
2662,904646,DONALD L HOLLOWELL PKWY @ PAINES AVE,W,1,Y,CONC,50,Atlanta,Fulton,2.517388,12.575576,NS,Y,Y,Y,Y,Sign,33.773057,-84.414368,13121011800,Census Tract 118,33.7709168,-84.4088781,25.7,30972,1867,21117.8,  ,0
2663,904647,DONALD L HOLLOWELL PKWY @ OLIVER ST,W,0,Y,CONC,50,Atlanta,Fulton,2.939548,4.562008,NS,Y,Y,Y,Y,Sign,33.773065,-84.415401,13121011800,Census Tract 118,33.7709168,-84.4088781,25.7,30972,1867,21117.8,Lighting  ,0
2664,904648,DONALD L HOLLOWELL PKWY @ JOSEPH E LOWERY BLVD,W,1,Y,CONC,50,Atlanta,Fulton,6.391691,15.323228,NS,Y,Y,Y,Y,Sign,33.773081,-84.417304,13121011800,Census Tract 118,33.7709168,-84.4088781,25.7,30972,1867,21117.8,  ,0
2665,904636,BOULEVARD NE @ PONCE DE LEON AVE NE,N,1,Y,DIRT,102;809,Atlanta,Fulton,6.436879,46.924643,NS,Y,Y,Y,Y,Sign,33.773109,-84.371068,13121001300,Census Tract 13,33.7761933,-84.3715699,5.5,76188,4421,54315.2,  ,0
2669,904546,DONALD L HOLLOWELL PKWY @ SIMMONS ST,E,1,Y,DIRT,50,Atlanta,Fulton,6.706675,7.974633,NS,Y,N,N,Y,Sign,33.773151,-84.420229,13121000700,Census Tract 7,33.7799333,-84.4233152,12.1,84107,3339,25610.9,  ,0
2670,904333,MARIETTA ST NW@MEANS ST NW,SE,1,Y,CONC,26,Atlanta,Fulton,27.656462,5.268047,NS,Y,Y,Y,Y,Sign,33.773163,-84.403484,13121001002,Census Tract 10.02,33.7763249,-84.3995394,18.4,31042,7305,5419.2,  ,0
2696,904409,PONCE DE LEON AVE NE @ PONCE DE LEON PL,E,1,Y,CONC,2;102,Atlanta,Fulton,20.264744,76.911816,NS,Y,Y,Y,Y,Sign,33.773649,-84.363402,13121001400,Census Tract 14,33.7770784,-84.3622634,2.3,84167,2345,78163.9,  ,0
2700,904527,PONCE DE LEON AVE NE @ PONCE DE LEON PL,W,1,Y,DIRT,2;102,Atlanta,Fulton,63.904551,20.679373,NS,Y,Y,Y,Y,Sign,33.773699,-84.36362,13121001400,Census Tract 14,33.7770784,-84.3622634,2.3,84167,2345,78163.9,  ,0
2711,211524,PONCE DE LEON AVE @ N HIGHLAND AVE,W,1,Y,CONC,2;102,Atlanta,Fulton,82.077279,21.565021,FS,Y,Y,Y,Y,Sign,33.773916,-84.353067,13121001500,Census Tract 15,33.7764970,-84.3539007,15.6,66490,4617,66322,  ,0
2716,904428,PONCE DE LEON AVE NE @ BARNETT ST NE,W,1,Y,DIRT,2;102,Atlanta,Fulton,5.098287,3.654547,NS,Y,Y,Y,Y,Sign,33.773975,-84.358505,13121001500,Census Tract 15,33.7764970,-84.3539007,15.6,66490,4617,66322,  ,0
2740,905143,MARIETTA ST NW@NORTHSIDE DR NW,S,1,Y,DIRT,26,Atlanta,Fulton,0.235293,0.306279,FS,Y,Y,Y,Y,Sign,33.775141,-84.406688,13121001002,Census Tract 10.02,33.7763249,-84.3995394,18.4,31042,7305,5419.2,  ,0
2754,904711,MARIETTA BLVD NW @ JEFFERSON ST NW,S,1,N,DIRT,26,Atlanta,Fulton,28.125503,43.919721,NS,N,Y,N,N,Sign,33.775625,-84.426094,13121000700,Census Tract 7,33.7799333,-84.4233152,12.1,84107,3339,25610.9, ADA_Access Sidewalk,0
2777,903950,DONALD L HOLLOWELL PKY @ HAMILTON E HOLMES DR,W,0,Y,CONC,50;853,Atlanta,Fulton,28.236347,57.169874,FS,Y,Y,Y,Y,Sign,33.776651,-84.474323,13121008602,Census Tract 86.02,33.7919704,-84.4904445,18.6,37708,1562,19014.1,Lighting  ,0
2799,905142,MARIETTA ST NW@HAMPTON ST NW,S,1,Y,DIRT,26,Atlanta,Fulton,26.302459,2.752794,NS,Y,Y,Y,Y,Sign,33.777245,-84.408516,13121001002,Census Tract 10.02,33.7763249,-84.3995394,18.4,31042,7305,5419.2,  ,0
2803,904712,MARIETTA BLVD NW @ RICE ST,S,1,N,DIRT,26,Atlanta,Fulton,7.63582,7.988965,FS,N,Y,N,N,Sign,33.777424,-84.426491,13121000700,Census Tract 7,33.7799333,-84.4233152,12.1,84107,3339,25610.9, ADA_Access Sidewalk,0
2942,904480,N HIGHLAND AVE @ VIRGINIA AVE,S,1,Y,CONC,36;816,Atlanta,Fulton,25.720432,13.495724,NS,Y,Y,Y,Y,Sign,33.782677,-84.354515,13121000200,Census Tract 2,33.7916329,-84.3641988,0,158011,6175,107229,  ,0
2969,902334,HIGHTOWER RD NW @ 7TH ST NW,SW,0,N,DIRT,60,Atlanta,Fulton,7.866267,2.547493,NS,Y,Y,N,N,Sign,33.784623,-84.473479,13121008601,Census Tract 86.01,33.7814512,-84.4661915,41.6,22696,4953,12271.6,Lighting ADA_Access Sidewalk,0
2981,902139,MARIETTA BLVD NW @ W MARIETTA ST NW,S,1,N,DIRT,26,Atlanta,Fulton,5.572548,7.763762,FS,N,Y,N,N,Sign,33.78558,-84.427901,13121000700,Census Tract 7,33.7799333,-84.4233152,12.1,84107,3339,25610.9, ADA_Access Sidewalk,0
3141,211499,PERRY BLVD NW @ ODESSA DR NW,SE,1,Y,CONC,26,Atlanta,Fulton,26.337531,2.624639,NS,Y,Y,Y,Y,MARTA Bench,33.794408,-84.44921,13121008700,Census Tract 87,33.7938339,-84.4598776,22,33732,5781,23628.8,  ,0
3151,211916,NORTHSIDE DR NW @ TRABERT AVE NW,S,1,N,DIRT,37,Atlanta,Fulton,13.393059,2.135116,NS,N,Y,N,N,Sign,33.794839,-84.407889,13121008902,Census Tract 89.02,33.7984651,-84.4194299,4.5,72432,8007,55037.8, ADA_Access Sidewalk,0
3205,901800,HOLLYWOOD RD NW@ARNO DR NW,N,1,Y,DIRT,58;60,Atlanta,Fulton,10.247508,87.055648,NS,Y,Y,Y,Y,Sign,33.799111,-84.469953,13121008700,Census Tract 87,33.7938339,-84.4598776,22,33732,5781,23628.8,  ,0
3229,902292,AJAX DR NW @ ABNER TER NW,NE,0,N,DIRT,26,Atlanta,Fulton,5.04293,0.784488,FS,N,Y,N,N,Sign,33.800094,-84.462294,13121008700,Census Tract 87,33.7938339,-84.4598776,22,33732,5781,23628.8,Lighting ADA_Access Sidewalk,0
3233,901446,BELLEMEADE AVE @ NORTHSIDE DR,E,1,Y,DIRT,37,Atlanta,Fulton,16.154199,0.838634,NS,Y,Y,Y,Y,Sign,33.800217,-84.408053,13121008902,Census Tract 89.02,33.7984651,-84.4194299,4.5,72432,8007,55037.8,  ,0
3236,902578,BELLEMEADE AVE NW@TALLULAH ST NW,E,1,Y,DIRT,37,Atlanta,Fulton,23.845582,3.392102,NS,Y,Y,Y,Y,Sign,33.800296,-84.411267,13121008902,Census Tract 89.02,33.7984651,-84.4194299,4.5,72432,8007,55037.8,  ,0
3239,901671,BELLEMEADE AVE NW@BUCHANAN ST NW,E,1,Y,DIRT,37,Atlanta,Fulton,24.850902,10.852577,NS,Y,Y,Y,Y,Sign,33.80037,-84.41332,13121008902,Census Tract 89.02,33.7984651,-84.4194299,4.5,72432,8007,55037.8,  ,0
3408,902242,HOLLYWOOD RD NW@SPINK ST NW,SW,0,N,DIRT,60,Atlanta,Fulton,6.820146,2.273737,NS,Y,N,N,N,Sign,33.812328,-84.470604,13121008800,Census Tract 88,33.8122974,-84.4590844,6.2,103385,5430,49136.7,Lighting ADA_Access Sidewalk,0
3485,900043,LINDBERGH WAY NE @ W LINDMONT CT,E,1,N,DIRT,6,Atlanta,Fulton,9.468599,0.125,FS,Y,Y,Y,Y,Sign,33.820486,-84.364804,13121009402,Census Tract 94.02,33.8221523,-84.3642584,7.3,75088,5537,54033.6, ADA_Access ,0
3488,900044,LINDBERGH DR NE @ ADINA DR NE,E,1,Y,CONC,6,Atlanta,Fulton,14.70749,6.390524,NS,Y,Y,Y,Y,Sign,33.820585,-84.363316,13121009402,Census Tract 94.02,33.8221523,-84.3642584,7.3,75088,5537,54033.6,  ,0
3489,900591,LINDBERGH DR NE @ ADINA DR NE,W,1,Y,CONC,6,Atlanta,Fulton,2.939864,11.611631,NS,Y,Y,Y,Y,Sign,33.820666,-84.363153,13121009402,Census Tract 94.02,33.8221523,-84.3642584,7.3,75088,5537,54033.6,  ,0
3524,900580,BUFORD HWY NE @ SHADY VALLEY DR NE,E,1,Y,CONC,39,Atlanta,Fulton,15.959064,12.733788,FS,Y,Y,Y,Y,Sign,33.82552,-84.351437,13121009402,Census Tract 94.02,33.8221523,-84.3642584,7.3,75088,5537,54033.6,  ,0
3564,900638,PEACHTREE RD NW@SHERIDAN,S,0,Y,CONC,110,Atlanta,Fulton,22.873635,6.808765,NS,Y,Y,Y,Y,Sign,33.833595,-84.383653,13121009502,Census Tract 95.02,33.8419877,-84.3860683,13.4,86053,3867,91872,Lighting  ,0
3570,900654,PEACHTREE RD NW@PEACHTREE AVE NE,N,1,Y,CONC,110,Atlanta,Fulton,49.793611,66.540515,NS,Y,Y,Y,Y,Sign,33.83479,-84.382422,13121009502,Census Tract 95.02,33.8419877,-84.3860683,13.4,86053,3867,91872,  ,0
3575,902513,PEACHTREE RD @ PHARR RD NE,N,1,Y,CONC,110,Atlanta,Fulton,45.749364,52.905029,NS,Y,Y,Y,Y,MARTA Shelter,33.836966,-84.381379,13121009603,Census Tract 96.03,33.8343705,-84.3757572,10.9,83243,4830,80405.7,  ,1
3594,901693,PEACHTREE RD NW@MATHIESON DR NE,NE,1,Y,CONC,110,Atlanta,Fulton,8.036439,3.733465,NS,Y,Y,Y,Y,Sign,33.840317,-84.377192,13121009603,Census Tract 96.03,33.8343705,-84.3757572,10.9,83243,4830,80405.7,  ,0
3605,901705,PIEDMONT RD NE @ MARTINA DR NE,S,1,Y,DIRT,5,Atlanta,Fulton,15.152162,5.913757,FS,Y,Y,Y,Y,Sign,33.84171,-84.37053,13121009603,Census Tract 96.03,33.8343705,-84.3757572,10.9,83243,4830,80405.7,  ,0
3675,905577,ROSWELL RD NE @ MIDVALE DR NE,N,1,Y,DIRT,5,Atlanta,Fulton,8.184929,22.695035,NS,Y,Y,Y,Y,Sign,33.872971,-84.38097,13121010001,Census Tract 100.01,33.8638108,-84.3736780,3.4,108197,4923,99971.3,,0